TDRS 3                  
1 19548U 88091B   26002.20028295 -.00000296  00000+0  00000+0 0  9997
2 19548  12.7281 342.0983 0043635 344.9056 157.8937  1.00264336123721
FLTSATCOM 8 (USA 46)    
1 20253U 89077A   26001.84514112 -.00000364  00000+0  00000+0 0  9990
2 20253  12.4671 352.1618 0008454 301.9432 237.2856  1.00279050258893
SKYNET 4C               
1 20776U 90079A   26002.11210940  .00000128  00000+0  00000+0 0  9994
2 20776  13.3938 350.9457 0003706 283.1352 261.4296  1.00267919129225
TDRS 5                  
1 21639U 91054B   26002.19869793  .00000085  00000+0  00000+0 0  9993
2 21639  14.0913 355.0027 0013926 261.4348 109.3007  1.00275085126054
TDRS 6                  
1 22314U 93003B   26002.03884523 -.00000295  00000+0  00000+0 0  9995
2 22314  14.1789 358.2896 0007257 215.3877 215.9844  1.00265770120744
UFO 2 (USA 95)          
1 22787U 93056A   26002.18248317  .00000126  00000+0  00000+0 0  9990
2 22787  11.8370   4.4535 0007300 299.8275 251.9497  1.00270675116880
USA 99 (MILSTAR-1 1)    
1 22988U 94009A   26002.05132317 -.00000204  00000+0  00000+0 0  9998
2 22988  17.3700  29.4977 0004181 266.9361  93.7530  1.00273115 31296
UFO 4 (USA 108)         
1 23467U 95003A   26001.78300073 -.00000020  00000+0  00000+0 0  9997
2 23467   9.6644  13.7750 0003202 264.0839 277.6506  1.00272993113286
TDRS 7                  
1 23613U 95035B   26001.90927485 -.00000238  00000+0  00000+0 0  9992
2 23613  13.4459 349.3327 0003792  47.3219 121.3066  1.00277239111587
USA 115 (MILSTAR-1 2)   
1 23712U 95060A   26002.05808780 -.00000021  00000+0  00000+0 0  9993
2 23712  14.0119   4.9745 0003611 291.7992  65.8440  1.00273314 31217
INMARSAT 3-F1           
1 23839U 96020A   26002.12016946 -.00000023  00000+0  00000+0 0  9995
2 23839  10.2546  48.1445 0008363 220.6029 310.0035  0.99974911108596
INMARSAT 3-F2           
1 24307U 96053A   26002.00461368 -.00000281  00000+0  00000+0 0  9997
2 24307   9.4805  55.6116 0005994 225.9867 139.8911  0.99995477107261
INMARSAT 3-F3           
1 24674U 96070A   26002.23278153  .00000117  00000+0  00000+0 0  9993
2 24674   9.9592  51.2322 0008394 223.8635 122.2975  0.99986978106243
AMC-3                   
1 24936U 97050A   26002.20267822 -.00000261  00000+0  00000+0 0  9992
2 24936   7.7393  65.9845 0003398 215.6495 181.1650  1.00270225 50777
USA 134                 
1 25019U 97065A   26002.08333589 -.00000064  00000+0  00000+0 0  9992
2 25019  12.5856  22.9500 0007055 273.5716  82.8212  1.00272554 31285
INMARSAT 3-F5           
1 25153U 98006B   26002.08735896 -.00000291  00000+0  00000+0 0  9996
2 25153   9.3213  54.8954 0005531 233.6264 150.6070  1.00266628102239
SKYNET 4E               
1 25639U 99009B   26002.08047587  .00000049  00000+0  00000+0 0  9992
2 25639  11.9655   9.9881 0004845 256.3322  97.5204  0.99025998 49509
ABS-6                   
1 25924U 99053A   26002.20839667 -.00000111  00000+0  00000+0 0  9991
2 25924   0.0321 283.1723 0002300   4.7290  47.9702  1.00271522 96164
UFO 10 (USA 146)        
1 25967U 99063A   26001.88700139 -.00000187  00000+0  00000+0 0  9996
2 25967   9.8260  28.0806 0006694 255.2205 114.6329  1.00270819 95688
ASIASTAR                
1 26107U 00016A   26002.12632282 -.00000334  00000+0  00000+0 0  9998
2 26107   8.7430  59.9148 0005255 221.6233 330.7161  1.00272497 94255
USA 149 (DSP 20)        
1 26356U 00024A   26002.21541671  .00000093  00000+0  00000+0 0  9995
2 26356  13.0446  13.0155 0000912 226.2639 134.7592  1.00271505 31252
TDRS 8                  
1 26388U 00034A   26002.05109569 -.00000196  00000+0  00000+0 0  9994
2 26388  12.4204  32.7108 0004493 266.7441 265.4070  1.00268386 93519
NSS-11                  
1 26554U 00059A   26002.21177669  .00000031  00000+0  00000+0 0  9997
2 26554   1.6975  83.4297 0003334 195.6522  75.0038  1.00270276 39626
USA 153                 
1 26575U 00065A   26001.91820157 -.00000325  00000+0  00000+0 0  9997
2 26575  11.3377  36.7736 0001855 254.5058 275.1430  1.00277906 31265
AMC-6                   
1 26580U 00067A   26002.23732736  .00000096  00000+0  00000+0 0  9990
2 26580   0.0359 312.2537 0003067 324.0171 136.0050  1.00271903 92220
USA 157 (MILSTAR-2 2)   
1 26715U 01009A   26002.23112317  .00000110  00000+0  00000+0 0  9991
2 26715  11.3589  20.7699 0041450 185.6116 188.6399  1.00275777 31289
INTELSAT 10 (IS-10)     
1 26766U 01019A   26002.18690321  .00000072  00000+0  00000+0 0  9995
2 26766   8.6777  60.9493 0008425 233.1344 285.6256  0.99072683 43931
USA 159 (DSP 21)        
1 26880U 01033A   26002.20879965 -.00000299  00000+0  00000+0 0  9996
2 26880  12.6295  17.5900 0000890 261.6662 208.6951  1.00272904 31302
INTELSAT 902 (IS-902)   
1 26900U 01039A   26002.20915279 -.00000281  00000+0  00000+0 0  9995
2 26900   5.6984  73.8297 0004451 211.7316 201.4786  1.00271377 89038
USA 164 (MILSTAR-2 3)   
1 27168U 02001A   26002.25190361  .00000097  00000+0  00000+0 0  9998
2 27168  10.9809  22.8873 0097204   3.0313 185.6813  1.00266579 31298
INTELSAT 904 (IS-904)   
1 27380U 02007A   26002.09558788 -.00000223  00000+0  00000+0 0  9995
2 27380   6.5050  71.1932 0002659 254.3340 139.1407  1.00270402 50101
DIRECTV 5 (TEMPO 1)     
1 27426U 02023A   26002.24875495 -.00000053  00000+0  00000+0 0  9999
2 27426   4.4540  77.4053 0003812 216.8699 147.0454  1.00271547 86467
INTELSAT 905 (IS-905)   
1 27438U 02027A   26001.79296747  .00000097  00000+0  00000+0 0  9999
2 27438   6.3352  71.8197 0003077 214.3380 323.5498  1.00273229 49694
GALAXY 3C (G-3C)        
1 27445U 02030A   26002.25259623 -.00000148  00000+0  00000+0 0  9993
2 27445   3.3142  80.2767 0000989 106.0851 271.6039  1.00270852 44836
INTELSAT 906 (IS-906)   
1 27513U 02041A   26002.05129311  .00000016  00000+0  00000+0 0  9992
2 27513   5.3809  74.9904 0006122 208.2344 261.0692  1.00272273 85364
NIMIQ 2                 
1 27632U 02062A   26002.24694045 -.00000069  00000+0  00000+0 0  9998
2 27632   9.0629  58.6347 0006569 225.4965 157.4531  1.00270706 42522
USA 167                 
1 27691U 03008A   26002.24168354  .00000004  00000+0  00000+0 0  9991
2 27691  10.6315  44.8778 0005488 263.6476 118.4522  1.00272840  5114
USA 169 (MILSTAR-2 4)   
1 27711U 03012A   26001.85042782 -.00000197  00000+0  00000+0 0  9995
2 27711  12.0959  31.1722 0096091   1.6054 167.0120  1.00272655 31282
ASIASAT 4               
1 27718U 03014A   26001.99087385 -.00000217  00000+0  00000+0 0  9990
2 27718   4.2801  77.8622 0002884 201.5453 326.4905  1.00271965 43632
HELLAS-SAT 2            
1 27811U 03020A   26001.96092850 -.00000082  00000+0  00000+0 0  9991
2 27811   6.9407  69.8828 0011023 200.8970 166.7329  1.00271014 41185
THURAYA-2               
1 27825U 03026A   26002.18560319  .00000126  00000+0  00000+0 0  9995
2 27825   8.5790  32.6296 0003464 268.4023 271.6126  1.00271877 82687
OPTUS C1                
1 27831U 03028B   26001.56571237 -.00000147  00000+0  00000+0 0  9990
2 27831   6.4721  71.4428 0006207 212.4841 176.7166  1.00271888 51393
USA 170                 
1 27875U 03040A   26001.82494766  .00000126  00000+0  00000+0 0  9998
2 27875  10.1468  49.5069 0002476 227.6035 145.4679  1.00269480 31323
GALAXY 13 (HORIZONS-1)  
1 27954U 03044A   26002.27010112  .00000140  00000+0  00000+0 0  9995
2 27954   0.9896  86.2134 0001947 192.2857 130.6328  1.00270085 44903
YAMAL 202               
1 28089U 03053A   26001.46225152 -.00000075  00000+0  00000+0 0  9995
2 28089   5.9219  72.9826 0006946 195.2319 162.8146  1.00271386 81021
UFO 11 (USA 174)        
1 28117U 03057A   26002.12051612 -.00000102  00000+0  00000+0 0  9994
2 28117   8.7772  34.6178 0004602 238.7807 307.2927  1.00270037 80781
USA 176 (DSP 22)        
1 28158U 04004A   26002.08636924 -.00000160  00000+0  00000+0 0  9996
2 28158  11.8351  27.2745 0003762 244.5309 124.5269  1.00270034 31276
ABS-4 (MOBISAT-1)       
1 28184U 04007A   26002.26850277  .00000040  00000+0  00000+0 0  9993
2 28184   5.6220  74.0491 0005959 211.5577 333.9982  1.00274987 50674
EUTELSAT 7A             
1 28187U 04008A   26002.23545079  .00000105  00000+0  00000+0 0  9997
2 28187   5.4093  74.0132 0001428 227.8127 105.5976  1.00270345 79685
AMC-11                  
1 28252U 04017A   26002.24875529 -.00000041  00000+0  00000+0 0  9997
2 28252   0.0164  28.1692 0003364 260.3543 151.8155  1.00270665 79200
INTELSAT 10-02          
1 28358U 04022A   26002.24800359 -.00000004  00000+0  00000+0 0  9998
2 28358   0.0155  51.4922 0001437 257.5233 241.1825  1.00266611 78892
ANIK F2                 
1 28378U 04027A   26002.24875512 -.00000044  00000+0  00000+0 0  9992
2 28378   2.8563  81.7259 0001344 212.1750 146.4141  1.00271247 39597
AMC-15                  
1 28446U 04041A   26002.24904010 -.00000080  00000+0  00000+0 0  9990
2 28446   0.0187  28.6859 0002582 249.3730 168.4310  1.00271747 77641
NSS-10                  
1 28526U 05003A   26002.09806931 -.00000249  00000+0  00000+0 0  9991
2 28526   6.0354  72.4815 0003355 211.0828 176.0225  1.00271686 51491
XM-3 (RHYTHM)           
1 28626U 05008A   26002.25155694 -.00000081  00000+0  00000+0 0  9992
2 28626   0.2272  82.5678 0002675 266.9900 219.6894  0.98953198 40956
INMARSAT 4-F1           
1 28628U 05009A   26001.92678164  .00000037  00000+0  00000+0 0  9990
2 28628   4.9432  42.6552 0002535 245.3745 325.2799  1.00270629 76006
DIRECTV 8               
1 28659U 05019A   26002.24334866  .00000000  00000+0  00000+0 0  9999
2 28659   0.0254  29.1076 0003373 259.3908 141.9478  1.00270393 75405
GALAXY 28 (G-28)        
1 28702U 05022A   26002.26132572 -.00000270  00000+0  00000+0 0  9994
2 28702   2.8720  81.0443 0003103 168.3628 233.5465  1.00597537 50315
THAICOM 4               
1 28786U 05028A   26002.12128020 -.00000354  00000+0  00000+0 0  9993
2 28786   0.0484  80.0056 0002258 199.8470 345.0336  1.00270713 50586
